NORAD_CAT_ID,OBJECT_NAME,OBJECT_TYPE,EPOCH,MEAN_MOTION,ECCENTRICITY,INCLINATION,RA_OF_ASC_NODE,ARG_OF_PERICENTER,MEAN_ANOMALY,BSTAR,MEAN_MOTION_DOT,MEAN_MOTION_DDOT,TLE_LINE0,TLE_LINE1,TLE_LINE2,SEMIMAJOR_AXIS,PERIOD,APOGEE,PERIGEE,DECAYED
52280.0,STARLINK-3764,PAYLOAD,2022-11-21 16:15:08,15.08833261,0.0001824,53.2171,114.1558,48.2712,311.8436,1.5027e-05,-4.9e-07,0.0,0 STARLINK-3764,1 52280U 22041V   22325.67717633 -.00000049  00000-0  15027-4 0  9993,2 52280  53.2171 114.1558 0001824  48.2712 311.8436 15.08833261 33821,6917.901,95.438,541.028,538.504,0.0
52280.0,STARLINK-3764,PAYLOAD,2022-11-21 17:50:31,15.0883228,0.0001881,53.2178,113.8593,48.9395,311.1759,3.2475e-06,-2.36e-06,0.0,0 STARLINK-3764,1 52280U 22041V   22325.74341780 -.00000236  00000-0  32475-5 0  9992,2 52280  53.2178 113.8593 0001881  48.9395 311.1759 15.08832280 32617,6917.904,95.438,541.07,538.4680000000002,0.0
52280.0,STARLINK-3764,PAYLOAD,2022-11-22 09:44:22,15.08834394,0.0001761,53.2181,110.8845,51.2783,308.8366,3.291e-05,2.36e-06,0.0,0 STARLINK-3764,1 52280U 22041V   22326.40581743  .00000236  00000-0  32910-4 0  9993,2 52280  53.2181 110.8845 0001761  51.2783 308.8366 15.08834394 32719,6917.898,95.438,540.981,538.544,0.0
52280.0,STARLINK-3764,PAYLOAD,2022-11-22 16:05:54,15.08838916,0.0001904,53.2178,109.696,48.1975,311.9179,7.465e-05,9e-06,0.0,0 STARLINK-3764,1 52280U 22041V   22326.67077443  .00000900  00000-0  74650-4 0  9994,2 52280  53.2178 109.6960 0001904  48.1975 311.9179 15.08838916 32751,6917.884,95.438,541.066,538.432,0.0
52280.0,STARLINK-3764,PAYLOAD,2022-11-23 03:13:36,15.08845467,0.000186,53.2179,107.6145,48.157,311.958,6.518399999999999e-05,7.4999999999999985e-06,0.0,0 STARLINK-3764,1 52280U 22041V   22327.13444960  .00000750  00000-0  65184-4 0  9993,2 52280  53.2179 107.6145 0001860  48.1570 311.9580 15.08845467 34046,6917.864000000001,95.437,541.015,538.442,0.0
52280.0,STARLINK-3764,PAYLOAD,2022-11-23 09:35:09,15.08836922,0.0001821,53.218,106.4252,53.476000000000006,306.64,4.3524e-05,4.05e-06,0.0,0 STARLINK-3764,1 52280U 22041V   22327.39941576  .00000405  00000-0  43524-4 0  9997,2 52280  53.2180 106.4252 0001821  53.4760 306.6400 15.08836922 34083,6917.89,95.438,541.015,538.495,0.0
52280.0,STARLINK-3764,PAYLOAD,2022-11-24 09:25:56,15.08838496,0.0001981,53.2185,101.9657,52.9444,307.1729,2.1752e-05,5.8e-07,0.0,0 STARLINK-3764,1 52280U 22041V   22328.39301903  .00000058  00000-0  21752-4 0  9995,2 52280  53.2185 101.9657 0001981  52.9444 307.1729 15.08838496 33017,6917.885,95.438,541.12,538.38,0.0
52280.0,STARLINK-3764,PAYLOAD,2022-11-24 15:47:29,15.08843333,0.0001921,53.2188,100.777,45.8936,314.2214,6.4686e-05,7.42e-06,0.0,0 STARLINK-3764,1 52280U 22041V   22328.65797457  .00000742  00000-0  64686-4 0  9990,2 52280  53.2188 100.7770 0001921  45.8936 314.2214 15.08843333 34277,6917.87,95.437,541.064,538.406,0.0
52280.0,STARLINK-3764,PAYLOAD,2022-11-25 09:16:44,15.08832798,0.0001935,53.2175,97.5045,47.8096,312.306,3.2963e-05,2.36e-06,0.0,0 STARLINK-3764,1 52280U 22041V   22329.38662234  .00000236  00000-0  32963-4 0  9996,2 52280  53.2175  97.5045 0001935  47.8096 312.3060 15.08832798 34388,6917.901999999999,95.438,541.106,538.429,0.0
52280.0,STARLINK-3764,PAYLOAD,2022-11-25 12:27:30,15.08835914,0.0001837,53.2175,96.9093,45.2284,314.8857,5.955100000000001e-05,6.6e-06,0.0,0 STARLINK-3764,1 52280U 22041V   22329.51910011  .00000660  00000-0  59551-4 0  9993,2 52280  53.2175  96.9093 0001837  45.2284 314.8857 15.08835914 33187,6917.893,95.438,541.029,538.487,0.0
52280.0,STARLINK-3764,PAYLOAD,2022-11-25 15:38:16,15.08839845,0.000191,53.2168,96.3142,47.3242,312.7911,7.9508e-05,9.77e-06,0.0,0 STARLINK-3764,1 52280U 22041V   22329.65157736  .00000977  00000-0  79508-4 0  9990,2 52280  53.2168  96.3142 0001910  47.3242 312.7911 15.08839845 34420,6917.880999999999,95.438,541.067,538.425,0.0
52280.0,STARLINK-3764,PAYLOAD,2022-11-26 04:21:20,15.088498199999998,0.0001906,53.2173,93.9347,43.5356,316.5786,8.626e-05,1.085e-05,0.0,0 STARLINK-3764,1 52280U 22041V   22330.18149082  .00001085  00000-0  86260-4 0  9999,2 52280  53.2173  93.9347 0001906  43.5356 316.5786 15.08849820 34500,6917.85,95.437,541.034,538.3969999999998,0.0
52280.0,STARLINK-3764,PAYLOAD,2022-11-26 10:42:53,15.08842462,0.0001887,53.2178,92.7453,42.1338,317.9799,1.3571e-05,-7.2e-07,0.0,0 STARLINK-3764,1 52280U 22041V   22330.44645689 -.00000072  00000-0  13571-4 0  9993,2 52280  53.2178  92.7453 0001887  42.1338 317.9799 15.08842462 33326,6917.873000000001,95.437,541.043,538.432,0.0
52280.0,STARLINK-3764,PAYLOAD,2022-11-26 17:04:26,15.08841921,0.0001922,53.2178,91.556,39.9837,320.1296,6.403399999999999e-05,7.31e-06,0.0,0 STARLINK-3764,1 52280U 22041V   22330.71141543  .00000731  00000-0  64034-4 0  9994,2 52280  53.2178  91.5560 0001922  39.9837 320.1296 15.08841921 34586,6917.875,95.437,541.069,538.41,0.0
52280.0,STARLINK-3764,PAYLOAD,2022-11-27 07:22:54,15.08841897,0.0001929,53.2182,88.8796,37.7083,322.4044,1.9987e-05,3e-07,0.0,0 STARLINK-3764,1 52280U 22041V   22331.30757641  .00000030  00000-0  19987-4 0  9991,2 52280  53.2182  88.8796 0001929  37.7083 322.4044 15.08841897 33450,6917.875,95.437,541.0740000000002,538.405,0.0
52280.0,STARLINK-3764,PAYLOAD,2022-11-27 15:19:50,15.08838295,0.0001911,53.2181,87.3933,42.743,317.3711,2.346e-05,8.5e-07,0.0,0 STARLINK-3764,1 52280U 22041V   22331.63877748  .00000085  00000-0  23460-4 0  9999,2 52280  53.2181  87.3933 0001911  42.7430 317.3711 15.08838295 33507,6917.886,95.438,541.073,538.429,0.0
52280.0,STARLINK-3764,PAYLOAD,2022-11-28 02:27:33,15.08834613,0.0001941,53.2185,85.3124,43.0695,317.0449,-0.00013021,-2.36e-05,0.0,0 STARLINK-3764,1 52280U 22041V   22332.10246546 -.00002360  00000-0 -13021-3 0  9999,2 52280  53.2185  85.3124 0001941  43.0695 317.0449 15.08834613 34798,6917.897,95.438,541.105,538.419,0.0
52280.0,STARLINK-3764,PAYLOAD,2022-11-28 16:46:00,15.08826818,0.0001643,53.2179,82.6362,52.6172,307.4969,0.00024025,3.536e-05,0.0,0 STARLINK-3764,1 52280U 22041V   22332.69861967  .00003536  00000-0  24025-3 0  9993,2 52280  53.2179  82.6362 0001643  52.6172 307.4969 15.08826818 33663,6917.920999999999,95.438,540.922,538.649,0.0
52280.0,STARLINK-3764,PAYLOAD,2022-11-29 00:42:55,15.08847946,0.0002091,53.2186,81.1499,46.181,313.9355,7.7895e-05,9.52e-06,0.0,0 STARLINK-3764,1 52280U 22041V   22333.02981140  .00000952  00000-0  77895-4 0  9990,2 52280  53.2186  81.1499 0002091  46.1810 313.9355 15.08847946 34938,6917.856,95.437,541.168,538.275,0.0
52280.0,STARLINK-3764,PAYLOAD,2022-11-29 07:04:28,15.08843033,0.0002172,53.2185,79.9605,47.8576,312.2601,9.2805e-05,1.189e-05,0.0,0 STARLINK-3764,1 52280U 22041V   22333.29477363  .00001189  00000-0  92805-4 0  9997,2 52280  53.2185  79.9605 0002172  47.8576 312.2601 15.08843033 33756,6917.871,95.437,541.239,538.234,0.0
52280.0,STARLINK-3764,PAYLOAD,2022-11-29 13:26:01,15.08838753,0.0002174,53.2186,78.7713,47.9694,312.1483,8.7625e-05,1.107e-05,0.0,0 STARLINK-3764,1 52280U 22041V   22333.55973646  .00001107  00000-0  87625-4 0  9995,2 52280  53.2186  78.7713 0002174  47.9694 312.1483 15.08838753 35019,6917.884,95.438,541.253,538.245,0.0
52280.0,STARLINK-3764,PAYLOAD,2022-11-30 13:16:48,15.08842474,0.00022,53.2185,74.3107,48.5803,311.5378,9.7904e-05,1.27e-05,0.0,0 STARLINK-3764,1 52280U 22041V   22334.55333578  .00001270  00000-0  97904-4 0  9992,2 52280  53.2185  74.3107 0002200  48.5803 311.5378 15.08842474 33947,6917.873000000001,95.437,541.26,538.216,0.0
52280.0,STARLINK-3764,PAYLOAD,2022-12-01 00:24:30,15.08838516,0.0002097,53.2173,72.2298,40.8255,319.2894,-3.8404e-05,-8.99e-06,0.0,0 STARLINK-3764,1 52280U 22041V   22335.01702192 -.00000899  00000-0 -38404-4 0  9994,2 52280  53.2173  72.2298 0002097  40.8255 319.2894 15.08838516 35236,6917.885,95.438,541.201,538.299,0.0
52280.0,STARLINK-3764,PAYLOAD,2022-12-01 13:07:35,15.08844989,0.0002093,53.2163,69.8492,40.0106,320.1040000000001,7.2487e-05,8.66e-06,0.0,0 STARLINK-3764,1 52280U 22041V   22335.54693404  .00000866  00000-0  72487-4 0  9998,2 52280  53.2163  69.8492 0002093  40.0106 320.1040 15.08844989 34094,6917.865,95.437,541.178,538.2819999999998,0.0
52280.0,STARLINK-3764,PAYLOAD,2022-12-01 16:18:21,15.08842502,0.0002052,53.2179,69.2561,35.3405,324.7723,6.562e-05,7.56e-06,0.0,0 STARLINK-3764,1 52280U 22041V   22335.67941501  .00000756  00000-0  65620-4 0  9995,2 52280  53.2179  69.2561 0002052  35.3405 324.7723 15.08842502 35331,6917.873000000001,95.437,541.1569999999998,538.318,0.0
52280.0,STARLINK-3764,PAYLOAD,2022-12-02 12:58:22,15.08839972,0.0002147,53.2189,65.3901,41.809,318.3066,-2.743e-06,-3.32e-06,0.0,0 STARLINK-3764,1 52280U 22041V   22336.54053849 -.00000332  00000-0 -27430-5 0  9991,2 52280  53.2189  65.3901 0002147  41.8090 318.3066 15.08839972 34249,6917.88,95.438,541.231,538.26,0.0
52280.0,STARLINK-3764,PAYLOAD,2022-12-03 04:52:14,15.08831875,0.0002137,53.2194,62.4165,39.4265,320.6883,-7.5753e-05,-1.493e-05,0.0,0 STARLINK-3764,1 52280U 22041V   22337.20294970 -.00001493  00000-0 -75753-4 0  9996,2 52280  53.2194  62.4165 0002137  39.4265 320.6883 15.08831875 35564,6917.905,95.438,541.249,538.2919999999998,0.0
52280.0,STARLINK-3764,PAYLOAD,2022-12-03 12:49:09,15.08842675,0.0002183,53.2193,60.9303,38.6711,321.4437,-2.2027e-05,-6.39e-06,0.0,0 STARLINK-3764,1 52280U 22041V   22337.53414153 -.00000639  00000-0 -22027-4 0  9996,2 52280  53.2193  60.9303 0002183  38.6711 321.4437 15.08842675 34392,6917.871999999999,95.437,541.247,538.227,0.0
52280.0,STARLINK-3764,PAYLOAD,2022-12-04 06:18:25,15.08833117,0.0002242,53.2191,57.6583,35.6047,324.5094,-4.1799e-06,-3.55e-06,0.0,0 STARLINK-3764,1 52280U 22041V   22338.26279011 -.00000355  00000-0 -41799-5 0  9992,2 52280  53.2191  57.6583 0002242  35.6047 324.5094 15.08833117 35720,6917.901,95.438,541.317,538.215,0.0
